NORAD_CAT_ID,OBJECT_NAME,OBJECT_TYPE,EPOCH,MEAN_MOTION,ECCENTRICITY,INCLINATION,RA_OF_ASC_NODE,ARG_OF_PERICENTER,MEAN_ANOMALY,BSTAR,MEAN_MOTION_DOT,MEAN_MOTION_DDOT,TLE_LINE0,TLE_LINE1,TLE_LINE2,SEMIMAJOR_AXIS,PERIOD,APOGEE,PERIGEE,DECAYED
52490.0,STARLINK-3914,PAYLOAD,2024-04-28 13:00:56,15.0881565,0.0001734,53.2177,222.4202,86.2368,273.8822,9.4598e-05,1.217e-05,0.0,0 STARLINK-3914,1 52490U 22049AR  24119.54232031  .00001217  00000-0  94598-4 0  9994,2 52490  53.2177 222.4202 0001734  86.2368 273.8822 15.08815650109875,6917.955,95.439,541.019,538.62,0.0
52490.0,STARLINK-3914,PAYLOAD,2024-04-28 14:36:19,15.08815789,0.0001393,53.2159,222.1232,75.2599,284.8548,0.00023351,3.428e-05,0.0,0 STARLINK-3914,1 52490U 22049AR  24119.60856127  .00003428  00000-0  23351-3 0  9993,2 52490  53.2159 222.1232 0001393  75.2599 284.8548 15.08815789109724,6917.954,95.439,540.783,538.856,0.0
52490.0,STARLINK-3914,PAYLOAD,2024-04-29 12:51:44,15.08823167,0.0001598,53.2173,217.9587,90.6739,269.4436,0.00061034,9.434e-05,0.0,0 STARLINK-3914,1 52490U 22049AR  24120.53593578  .00009434  00000-0  61034-3 0  9998,2 52490  53.2173 217.9587 0001598  90.6739 269.4436 15.08823167109868,6917.932,95.439,540.902,538.691,0.0
52490.0,STARLINK-3914,PAYLOAD,2024-04-29 23:59:26,15.08841624,0.000133,53.2165,215.8798,74.6739,285.44,0.00077022,0.00011992,0.0,0 STARLINK-3914,1 52490U 22049AR  24120.99961377  .00011992  00000-0  77022-3 0  9990,2 52490  53.2165 215.8798 0001330  74.6739 285.4400 15.08841624110090,6917.875,95.437,540.661,538.82,0.0
52490.0,STARLINK-3914,PAYLOAD,2024-04-30 12:42:31,15.08860403,0.0001337,53.2165,213.501,77.5366,282.5775,0.00084853,0.0001325,0.0,0 STARLINK-3914,1 52490U 22049AR  24121.52952930  .00013250  00000-0  84853-3 0  9994,2 52490  53.2165 213.5010 0001337  77.5366 282.5775 15.08860403110018,6917.818,95.436,540.608,538.758,0.0
52490.0,STARLINK-3914,PAYLOAD,2024-05-01 12:33:17,15.08864653,0.000145,53.2171,209.04,81.6295,278.4861,0.00055144,8.505e-05,0.0,0 STARLINK-3914,1 52490U 22049AR  24122.52311900  .00008505  00000-0  55144-3 0  9999,2 52490  53.2171 209.0400 0001450  81.6295 278.4861 15.08864653110326,6917.805,95.436,540.673,538.667,0.0
52490.0,STARLINK-3914,PAYLOAD,2024-05-02 12:24:04,15.08847951,0.0001225,53.2159,204.5796,82.0797,278.0334,2.1632e-05,5.6e-07,0.0,0 STARLINK-3914,1 52490U 22049AR  24123.51671772  .00000056  00000-0  21632-4 0  9994,2 52490  53.2159 204.5796 0001225  82.0797 278.0334 15.08847951110471,6917.856,95.437,540.569,538.874,0.0
52490.0,STARLINK-3914,PAYLOAD,2024-05-03 10:39:27,15.08860454,0.0001227,53.215,200.4163,85.5647,274.5485,0.00021651,3.161e-05,0.0,0 STARLINK-3914,1 52490U 22049AR  24124.44406834  .00003161  00000-0  21651-3 0  9992,2 52490  53.2150 200.4163 0001227  85.5647 274.5485 15.08860454110458,6917.818,95.436,540.532,538.834,0.0
52490.0,STARLINK-3914,PAYLOAD,2024-05-03 21:47:09,15.08852706,0.0001226,53.2142,198.3337,52.2167,307.8936,0.00017532,2.504e-05,0.0,0 STARLINK-3914,1 52490U 22049AR  24124.90774846  .00002504  00000-0  17532-3 0  9997,2 52490  53.2142 198.3337 0001226  52.2167 307.8936 15.08852706110524,6917.842,95.437,540.555,538.858,0.0
52490.0,STARLINK-3914,PAYLOAD,2024-05-04 04:08:42,15.0884606,0.0003237,53.2151,197.1456,74.3918,285.7431,0.00015353,2.156e-05,0.0,0 STARLINK-3914,1 52490U 22049AR  24125.17271792  .00002156  00000-0  15353-3 0  9991,2 52490  53.2151 197.1456 0003237  74.3918 285.7431 15.08846060110728,6917.862,95.437,541.966,537.488,0.0
52490.0,STARLINK-3914,PAYLOAD,2024-05-04 12:05:39,15.08819003,0.0001256,53.2154,195.6592,72.4173,287.6956,-0.000391,-6.502e-05,0.0,0 STARLINK-3914,1 52490U 22049AR  24125.50392403 -.00006502  00000-0 -39100-3 0  9998,2 52490  53.2154 195.6592 0001256  72.4173 287.6956 15.08819003110771,6917.945,95.439,540.678,538.941,0.0
52490.0,STARLINK-3914,PAYLOAD,2024-05-05 11:56:27,15.0883177,0.000131,53.2157,191.1993,69.4184,290.6949,0.0010145,0.00015891,0.0,0 STARLINK-3914,1 52490U 22049AR  24126.49753975  .00015891  00000-0  10145-2 0  9998,2 52490  53.2157 191.1993 0001310  69.4184 290.6949 15.08831770110927,6917.906,95.438,540.677,538.864,0.0
52490.0,STARLINK-3914,PAYLOAD,2024-05-05 21:28:46,15.08845911,0.0001328,53.2156,189.4152,69.6586,290.4549,0.0011423,0.00017941,0.0,0 STARLINK-3914,1 52490U 22049AR  24126.89498002  .00017941  00000-0  11423-2 0  9997,2 52490  53.2156 189.4152 0001328  69.6586 290.4549 15.08845911110825,6917.862,95.437,540.646,538.809,0.0
52490.0,STARLINK-3914,PAYLOAD,2024-05-06 11:47:13,15.08870121,0.0001372,53.2155,186.7387,68.6948,291.419,0.0013135,0.00020695,0.0,0 STARLINK-3914,1 52490U 22049AR  24127.49113268  .00020695  00000-0  13135-2 0  9994,2 52490  53.2155 186.7387 0001372  68.6948 291.4190 15.08870121110918,6917.788,95.436,540.602,538.704,0.0
52490.0,STARLINK-3914,PAYLOAD,2024-05-06 21:19:32,15.0886769,0.0001404,53.2152,184.9549,66.9515,293.1625,0.0007642,0.00011904,0.0,0 STARLINK-3914,1 52490U 22049AR  24127.88856788  .00011904  00000-0  76420-3 0  9998,2 52490  53.2152 184.9549 0001404  66.9515 293.1625 15.08867690111136,6917.796,95.436,540.632,538.689,0.0
52490.0,STARLINK-3914,PAYLOAD,2024-05-07 10:02:36,15.08861817,0.0001512,53.2156,182.5769,66.9018,293.2133,0.00034129,5.151e-05,0.0,0 STARLINK-3914,1 52490U 22049AR  24128.41848345  .00005151  00000-0  34129-3 0  9995,2 52490  53.2156 182.5769 0001512  66.9018 293.2133 15.08861817111215,6917.814,95.436,540.725,538.633,0.0
52490.0,STARLINK-3914,PAYLOAD,2024-05-08 03:31:51,15.0884676,0.000163,53.2144,179.3059,66.9666,293.1498,-2.4108e-06,-3.26e-06,0.0,0 STARLINK-3914,1 52490U 22049AR  24129.14712268 -.00000326  00000-0 -24108-5 0  9999,2 52490  53.2144 179.3059 0001630  66.9666 293.1498 15.08846760111323,6917.86,95.437,540.852,538.597,0.0
52490.0,STARLINK-3914,PAYLOAD,2024-05-08 09:53:24,15.08847522,0.000127,53.2153,178.1144,75.4178,284.6955,-1.7489e-05,-5.66e-06,0.0,0 STARLINK-3914,1 52490U 22049AR  24129.41208485 -.00000566  00000-0 -17489-4 0  9999,2 52490  53.2153 178.1144 0001270  75.4178 284.6955 15.08847522111205,6917.857,95.437,540.601,538.844,0.0
52490.0,STARLINK-3914,PAYLOAD,2024-05-09 09:44:10,15.08845469,0.0001338,53.2161,173.6542,82.8603,277.2541,2.1593e-05,5.6e-07,0.0,0 STARLINK-3914,1 52490U 22049AR  24130.40568067  .00000056  00000-0  21593-4 0  9998,2 52490  53.2161 173.6542 0001338  82.8603 277.2541 15.08845469111517,6917.864,95.437,540.654,538.803,0.0
52490.0,STARLINK-3914,PAYLOAD,2024-05-10 03:13:25,15.08839504,0.000134,53.2166,170.3828,81.7762,278.3382,8.277e-05,1.03e-05,0.0,0 STARLINK-3914,1 52490U 22049AR  24131.13432360  .00001030  00000-0  82770-4 0  9992,2 52490  53.2166 170.3828 0001340  81.7762 278.3382 15.08839504111620,6917.882,95.438,540.674,538.82,0.0
52490.0,STARLINK-3914,PAYLOAD,2024-05-10 09:34:57,15.08844192,0.0001338,53.2167,169.1938,82.2151,277.8993,0.00012301,1.671e-05,0.0,0 STARLINK-3914,1 52490U 22049AR  24131.39928023  .00001671  00000-0  12301-3 0  9999,2 52490  53.2167 169.1938 0001338  82.2151 277.8993 15.08844192111502,6917.868,95.437,540.658,538.807,0.0
52490.0,STARLINK-3914,PAYLOAD,2024-05-10 19:07:16,15.08841081,0.0001339,53.2164,167.4098,81.6961,278.4183,8.7986e-05,1.113e-05,0.0,0 STARLINK-3914,1 52490U 22049AR  24131.79672340  .00001113  00000-0  87986-4 0  9994,2 52490  53.2164 167.4098 0001339  81.6961 278.4183 15.08841081111568,6917.877,95.437,540.668,538.816,0.0
52490.0,STARLINK-3914,PAYLOAD,2024-05-11 11:01:06,15.08888229,0.0001526,53.2162,164.436,87.3959,272.7208,0.00074476,0.000116,0.0,0 STARLINK-3914,1 52490U 22049AR  24132.45909996  .00011600  00000-0  74476-3 0  9999,2 52490  53.2162 164.4360 0001526  87.3959 272.7208 15.08888229111822,6917.733,95.435,540.654,538.542,0.0
52490.0,STARLINK-3914,PAYLOAD,2024-05-11 18:58:02,15.08859679,0.0002639,53.2152,162.9498,71.6428,288.4851,0.00026129,3.875e-05,0.0,0 STARLINK-3914,1 52490U 22049AR  24132.79030922  .00003875  00000-0  26129-3 0  9997,2 52490  53.2152 162.9498 0002639  71.6428 288.4851 15.08859679111879,6917.82,95.436,541.511,537.86,0.0
52490.0,STARLINK-3914,PAYLOAD,2024-05-12 01:19:35,15.08855402,0.0003827,53.2145,161.7608,74.8733,285.2682,0.00016707,2.372e-05,0.0,0 STARLINK-3914,1 52490U 22049AR  24133.05527334  .00002372  00000-0  16707-3 0  9997,2 52490  53.2145 161.7608 0003827  74.8733 285.2682 15.08855402111917,6917.833,95.437,542.346,537.051,0.0
52490.0,STARLINK-3914,PAYLOAD,2024-05-12 10:51:57,15.08770168,0.000142,53.215,159.977,83.3491,276.7663,-0.001282,-0.00020594,0.0,0 STARLINK-3914,1 52490U 22049AR  24133.45274907 -.00020594  00000-0 -12820-2 0  9995,2 52490  53.2150 159.9770 0001420  83.3491 276.7663 15.08770168111970,6918.094,95.442,540.941,538.976,0.0
52490.0,STARLINK-3914,PAYLOAD,2024-05-12 18:48:53,15.08801196,0.0001552,53.216,158.4892,73.9146,286.2017,-0.00038975,-6.479e-05,0.0,0 STARLINK-3914,1 52490U 22049AR  24133.78395269 -.00006479  00000-0 -38975-3 0  9992,2 52490  53.2160 158.4892 0001552  73.9146 286.2017 15.08801196112020,6917.999,95.44,540.938,538.79,0.0
52490.0,STARLINK-3914,PAYLOAD,2024-05-13 01:10:25,15.08828028,0.0001695,53.2165,157.2998,72.1949,287.9228,-3.8401e-05,-8.99e-06,0.0,0 STARLINK-3914,1 52490U 22049AR  24134.04890346 -.00000899  00000-0 -38401-4 0  9993,2 52490  53.2165 157.2998 0001695  72.1949 287.9228 15.08828028112068,6917.917,95.438,540.955,538.609,0.0
52490.0,STARLINK-3914,PAYLOAD,2024-05-13 10:42:44,15.08823953,0.0001611,53.216,155.515,70.2499,289.8667,0.00013591,1.875e-05,0.0,0 STARLINK-3914,1 52490U 22049AR  24134.44635173  .00001875  00000-0  13591-3 0  9997,2 52490  53.2160 155.5150 0001611  70.2499 289.8667 15.08823953111969,6917.929,95.439,540.909,538.68,0.0
52490.0,STARLINK-3914,PAYLOAD,2024-05-13 18:39:40,15.08828526,0.0001585,53.2161,154.0291,69.9664,290.1499,0.00036944,5.595e-05,0.0,0 STARLINK-3914,1 52490U 22049AR  24134.77755537  .00005595  00000-0  36944-3 0  9990,2 52490  53.2161 154.0291 0001585  69.9664 290.1499 15.08828526112015,6917.915,95.438,540.877,538.684,0.0
